{
  "type": "FeatureCollection",
  "features": [
    {
      "type": "Feature",
      "properties": {
        "norad_id": 66884,
        "name": "STARLINK-36057",
        "group": "last-30-days",
        "lat": -51.083692464506264,
        "lon": -37.824110062135844,
        "alt_km": 352.56839387511354,
        "timestamp": "2025-12-21T09:37:21.373511+00:00",
        "meta_object_name": "STARLINK-36057",
        "meta_object_id": "2025-283G",
        "meta_epoch": "2025-12-21T04:00:01.998720",
        "meta_mean_motion": 15.74190182,
        "meta_eccentricity": 0.000127,
        "meta_inclination": 53.1581,
        "meta_ra_of_asc_node": 31.5682,
        "meta_arg_of_pericenter": 94.1514,
        "meta_mean_anomaly": 301.0562,
        "meta_ephemeris_type": 0,
        "meta_classification_type": "U",
        "meta_norad_cat_id": 66884,
        "meta_element_set_no": 999,
        "meta_rev_at_epoch": 378,
        "meta_bstar": -0.0001405,
        "meta_mean_motion_dot": -0.00021156,
        "meta_mean_motion_ddot": 0,
        "tle_line1": "1 66884U 25283G   25355.16668980 -.00021156  00000+0 -14050-3 0  9995",
        "tle_line2": "2 66884  53.1581  31.5682 0001270  94.1514 301.0562 15.74190182  3789"
      },
      "geometry": {
        "type": "Point",
        "coordinates": [
          -37.824110062135844,
          -51.083692464506264
        ]
      }
    },
    {
      "type": "Feature",
      "properties": {
        "norad_id": 66885,
        "name": "STARLINK-35954",
        "group": "last-30-days",
        "lat": -51.61350387051384,
        "lon": -40.755998228524675,
        "alt_km": 352.55055824454575,
        "timestamp": "2025-12-21T09:37:21.373521+00:00",
        "meta_object_name": "STARLINK-35954",
        "meta_object_id": "2025-283H",
        "meta_epoch": "2025-12-21T04:00:01.998720",
        "meta_mean_motion": 15.74185176,
        "meta_eccentricity": 0.0001166,
        "meta_inclination": 53.158,
        "meta_ra_of_asc_node": 31.5721,
        "meta_arg_of_pericenter": 92.286,
        "meta_mean_anomaly": 301.0168,
        "meta_ephemeris_type": 0,
        "meta_classification_type": "U",
        "meta_norad_cat_id": 66885,
        "meta_element_set_no": 999,
        "meta_rev_at_epoch": 378,
        "meta_bstar": -0.00025364,
        "meta_mean_motion_dot": -0.00037603,
        "meta_mean_motion_ddot": 0,
        "tle_line1": "1 66885U 25283H   25355.16668980 -.00037603  00000+0 -25364-3 0  9990",
        "tle_line2": "2 66885  53.1580  31.5721 0001166  92.2860 301.0168 15.74185176  3789"
      },
      "geometry": {
        "type": "Point",
        "coordinates": [
          -40.755998228524675,
          -51.61350387051384
        ]
      }
    },
    {
      "type": "Feature",
      "properties": {
        "norad_id": 66886,
        "name": "STARLINK-35900",
        "group": "last-30-days",
        "lat": -50.479178871680766,
        "lon": -34.95206436261577,
        "alt_km": 352.47791812393643,
        "timestamp": "2025-12-21T09:37:21.373545+00:00",
        "meta_object_name": "STARLINK-35900",
        "meta_object_id": "2025-283J",
        "meta_epoch": "2025-12-21T04:00:01.998720",
        "meta_mean_motion": 15.74201681,
        "meta_eccentricity": 0.0001178,
        "meta_inclination": 53.1579,
        "meta_ra_of_asc_node": 31.5638,
        "meta_arg_of_pericenter": 88.7856,
        "meta_mean_anomaly": 308.3395,
        "meta_ephemeris_type": 0,
        "meta_classification_type": "U",
        "meta_norad_cat_id": 66886,
        "meta_element_set_no": 999,
        "meta_rev_at_epoch": 378,
        "meta_bstar": -0.00033946,
        "meta_mean_motion_dot": -0.00050077,
        "meta_mean_motion_ddot": 0,
        "tle_line1": "1 66886U 25283J   25355.16668980 -.00050077  00000+0 -33946-3 0  9996",
        "tle_line2": "2 66886  53.1579  31.5638 0001178  88.7856 308.3395 15.74201681  3785"
      },
      "geometry": {
        "type": "Point",
        "coordinates": [
          -34.95206436261577,
          -50.479178871680766
        ]
      }
    },
    {
      "type": "Feature",
      "properties": {
        "norad_id": 66887,
        "name": "STARLINK-35925",
        "group": "last-30-days",
        "lat": -49.80733462376242,
        "lon": -32.16175160684554,
        "alt_km": 352.2334763610288,
        "timestamp": "2025-12-21T09:37:21.373560+00:00",
        "meta_object_name": "STARLINK-35925",
        "meta_object_id": "2025-283K",
        "meta_epoch": "2025-12-21T04:00:01.998720",
        "meta_mean_motion": 15.74197359,
        "meta_eccentricity": 8.56e-05,
        "meta_inclination": 53.1579,
        "meta_ra_of_asc_node": 31.5602,
        "meta_arg_of_pericenter": 88.0218,
        "meta_mean_anomaly": 311.0193,
        "meta_ephemeris_type": 0,
        "meta_classification_type": "U",
        "meta_norad_cat_id": 66887,
        "meta_element_set_no": 999,
        "meta_rev_at_epoch": 378,
        "meta_bstar": -0.00023783,
        "meta_mean_motion_dot": -0.00035325,
        "meta_mean_motion_ddot": 0,
        "tle_line1": "1 66887U 25283K   25355.16668980 -.00035325  00000+0 -23783-3 0  9994",
        "tle_line2": "2 66887  53.1579  31.5602 0000856  88.0218 311.0193 15.74197359  3787"
      },
      "geometry": {
        "type": "Point",
        "coordinates": [
          -32.16175160684554,
          -49.80733462376242
        ]
      }
    },
    {
      "type": "Feature",
      "properties": {
        "norad_id": 66888,
        "name": "STARLINK-35919",
        "group": "last-30-days",
        "lat": -49.06953651960241,
        "lon": -29.45004181732426,
        "alt_km": 352.2645972885575,
        "timestamp": "2025-12-21T09:37:21.373571+00:00",
        "meta_object_name": "STARLINK-35919",
        "meta_object_id": "2025-283L",
        "meta_epoch": "2025-12-21T04:00:01.998720",
        "meta_mean_motion": 15.74192452,
        "meta_eccentricity": 9.52e-05,
        "meta_inclination": 53.1578,
        "meta_ra_of_asc_node": 31.5561,
        "meta_arg_of_pericenter": 87.7601,
        "meta_mean_anomaly": 313.201,
        "meta_ephemeris_type": 0,
        "meta_classification_type": "U",
        "meta_norad_cat_id": 66888,
        "meta_element_set_no": 999,
        "meta_rev_at_epoch": 378,
        "meta_bstar": -0.00016464,
        "meta_mean_motion_dot": -0.00024673,
        "meta_mean_motion_ddot": 0,
        "tle_line1": "1 66888U 25283L   25355.16668980 -.00024673  00000+0 -16464-3 0  9997",
        "tle_line2": "2 66888  53.1578  31.5561 0000952  87.7601 313.2010 15.74192452  3781"
      },
      "geometry": {
        "type": "Point",
        "coordinates": [
          -29.45004181732426,
          -49.06953651960241
        ]
      }
    },
    {
      "type": "Feature",
      "properties": {
        "norad_id": 66889,
        "name": "STARLINK-35852",
        "group": "last-30-days",
        "lat": -48.269565951944514,
        "lon": -26.820304851855553,
        "alt_km": 352.36727674738995,
        "timestamp": "2025-12-21T09:37:21.373581+00:00",
        "meta_object_name": "STARLINK-35852",
        "meta_object_id": "2025-283M",
        "meta_epoch": "2025-12-21T04:00:01.998720",
        "meta_mean_motion": 15.74196587,
        "meta_eccentricity": 0.0001101,
        "meta_inclination": 53.1577,
        "meta_ra_of_asc_node": 31.5516,
        "meta_arg_of_pericenter": 96.7376,
        "meta_mean_anomaly": 306.1395,
        "meta_ephemeris_type": 0,
        "meta_classification_type": "U",
        "meta_norad_cat_id": 66889,
        "meta_element_set_no": 999,
        "meta_rev_at_epoch": 378,
        "meta_bstar": -0.00024624,
        "meta_mean_motion_dot": -0.00036548,
        "meta_mean_motion_ddot": 0,
        "tle_line1": "1 66889U 25283M   25355.16668980 -.00036548  00000+0 -24624-3 0  9999",
        "tle_line2": "2 66889  53.1577  31.5516 0001101  96.7376 306.1395 15.74196587  3787"
      },
      "geometry": {
        "type": "Point",
        "coordinates": [
          -26.820304851855553,
          -48.269565951944514
        ]
      }
    },
    {
      "type": "Feature",
      "properties": {
        "norad_id": 66890,
        "name": "STARLINK-35885",
        "group": "last-30-days",
        "lat": -47.41194612086634,
        "lon": -24.27490464285777,
        "alt_km": 352.34066779714794,
        "timestamp": "2025-12-21T09:37:21.373591+00:00",
        "meta_object_name": "STARLINK-35885",
        "meta_object_id": "2025-283N",
        "meta_epoch": "2025-12-21T04:00:01.998720",
        "meta_mean_motion": 15.74203562,
        "meta_eccentricity": 0.0001132,
        "meta_inclination": 53.1578,
        "meta_ra_of_asc_node": 31.548,
        "meta_arg_of_pericenter": 94.3297,
        "meta_mean_anomaly": 310.4617,
        "meta_ephemeris_type": 0,
        "meta_classification_type": "U",
        "meta_norad_cat_id": 66890,
        "meta_element_set_no": 999,
        "meta_rev_at_epoch": 378,
        "meta_bstar": -0.00031998,
        "meta_mean_motion_dot": -0.00047259,
        "meta_mean_motion_ddot": 0,
        "tle_line1": "1 66890U 25283N   25355.16668980 -.00047259  00000+0 -31998-3 0  9994",
        "tle_line2": "2 66890  53.1578  31.5480 0001132  94.3297 310.4617 15.74203562  3787"
      },
      "geometry": {
        "type": "Point",
        "coordinates": [
          -24.27490464285777,
          -47.41194612086634
        ]
      }
    }
  ]
}